{
  "type": "FeatureCollection",
  "features": [
    {
      "type": "Feature",
      "properties": {
        "norad_id": 29486,
        "name": "GPS BIIRM-2 (PRN 31)",
        "group": "gps-ops",
        "lat": 47.92567511463249,
        "lon": -149.5944188001147,
        "alt_km": 19899.913453536676,
        "timestamp": "2025-12-14T14:39:29.629326+00:00",
        "meta_object_name": "GPS BIIRM-2 (PRN 31)",
        "meta_object_id": "2006-042A",
        "meta_epoch": "2025-12-13T18:30:29.195136",
        "meta_mean_motion": 2.00554141,
        "meta_eccentricity": 0.01073409,
        "meta_inclination": 54.6943,
        "meta_ra_of_asc_node": 158.6998,
        "meta_arg_of_pericenter": 51.984,
        "meta_mean_anomaly": 127.0201,
        "meta_ephemeris_type": 0,
        "meta_classification_type": "U",
        "meta_norad_cat_id": 29486,
        "meta_element_set_no": 999,
        "meta_rev_at_epoch": 14067,
        "meta_bstar": 0,
        "meta_mean_motion_dot": 1.02e-06,
        "meta_mean_motion_ddot": 0,
        "tle_line1": "1 29486U 06042A   25347.77117124  .00000102  00000+0  00000+0 0  9993",
        "tle_line2": "2 29486  54.6943 158.6998 0107340  51.9840 127.0201  2.00554141140673"
      },
      "geometry": {
        "type": "Point",
        "coordinates": [
          -149.5944188001147,
          47.92567511463249
        ]
      }
    },
    {
      "type": "Feature",
      "properties": {
        "norad_id": 29601,
        "name": "GPS BIIRM-3 (PRN 12)",
        "group": "gps-ops",
        "lat": 43.04236171343314,
        "lon": 0.44489693055994384,
        "alt_km": 19987.287183771106,
        "timestamp": "2025-12-14T14:39:29.629337+00:00",
        "meta_object_name": "GPS BIIRM-3 (PRN 12)",
        "meta_object_id": "2006-052A",
        "meta_epoch": "2025-12-11T22:46:47.068032",
        "meta_mean_motion": 2.00573524,
        "meta_eccentricity": 0.00877389,
        "meta_inclination": 54.9707,
        "meta_ra_of_asc_node": 221.4296,
        "meta_arg_of_pericenter": 87.4221,
        "meta_mean_anomaly": 273.6564,
        "meta_ephemeris_type": 0,
        "meta_classification_type": "U",
        "meta_norad_cat_id": 29601,
        "meta_element_set_no": 999,
        "meta_rev_at_epoch": 13965,
        "meta_bstar": 0,
        "meta_mean_motion_dot": 9e-08,
        "meta_mean_motion_ddot": 0,
        "tle_line1": "1 29601U 06052A   25345.94915588  .00000009  00000+0  00000+0 0  9996",
        "tle_line2": "2 29601  54.9707 221.4296 0087738  87.4221 273.6564  2.00573524139650"
      },
      "geometry": {
        "type": "Point",
        "coordinates": [
          0.44489693055994384,
          43.04236171343314
        ]
      }
    },
    {
      "type": "Feature",
      "properties": {
        "norad_id": 32260,
        "name": "GPS BIIRM-4 (PRN 15)",
        "group": "gps-ops",
        "lat": -53.39158507240199,
        "lon": -14.082500780558252,
        "alt_km": 20622.86080491558,
        "timestamp": "2025-12-14T14:39:29.629349+00:00",
        "meta_object_name": "GPS BIIRM-4 (PRN 15)",
        "meta_object_id": "2007-047A",
        "meta_epoch": "2025-12-13T18:00:56.680128",
        "meta_mean_motion": 2.00564495,
        "meta_eccentricity": 0.0164139,
        "meta_inclination": 53.9559,
        "meta_ra_of_asc_node": 87.7167,
        "meta_arg_of_pericenter": 85.2596,
        "meta_mean_anomaly": 276.6041,
        "meta_ephemeris_type": 0,
        "meta_classification_type": "U",
        "meta_norad_cat_id": 32260,
        "meta_element_set_no": 999,
        "meta_rev_at_epoch": 13309,
        "meta_bstar": 0,
        "meta_mean_motion_dot": -4.4e-07,
        "meta_mean_motion_ddot": 0,
        "tle_line1": "1 32260U 07047A   25347.75065602 -.00000044  00000+0  00000+0 0  9990",
        "tle_line2": "2 32260  53.9559  87.7167 0164139  85.2596 276.6041  2.00564495133093"
      },
      "geometry": {
        "type": "Point",
        "coordinates": [
          -14.082500780558252,
          -53.39158507240199
        ]
      }
    },
    {
      "type": "Feature",
      "properties": {
        "norad_id": 32384,
        "name": "GPS BIIRM-5 (PRN 29)",
        "group": "gps-ops",
        "lat": 25.731416286909287,
        "lon": -58.87310211749161,
        "alt_km": 20233.37362062612,
        "timestamp": "2025-12-14T14:39:29.629363+00:00",
        "meta_object_name": "GPS BIIRM-5 (PRN 29)",
        "meta_object_id": "2007-062A",
        "meta_epoch": "2025-12-13T07:26:31.680096",
        "meta_mean_motion": 2.00577339,
        "meta_eccentricity": 0.00322377,
        "meta_inclination": 55.1816,
        "meta_ra_of_asc_node": 281.623,
        "meta_arg_of_pericenter": 162.4378,
        "meta_mean_anomaly": 10.5516,
        "meta_ephemeris_type": 0,
        "meta_classification_type": "U",
        "meta_norad_cat_id": 32384,
        "meta_element_set_no": 999,
        "meta_rev_at_epoch": 13178,
        "meta_bstar": 0,
        "meta_mean_motion_dot": -8e-07,
        "meta_mean_motion_ddot": 0,
        "tle_line1": "1 32384U 07062A   25347.31008889 -.00000080  00000+0  00000+0 0  9990",
        "tle_line2": "2 32384  55.1816 281.6230 0032237 162.4378  10.5516  2.00577339131782"
      },
      "geometry": {
        "type": "Point",
        "coordinates": [
          -58.87310211749161,
          25.731416286909287
        ]
      }
    },
    {
      "type": "Feature",
      "properties": {
        "norad_id": 32711,
        "name": "GPS BIIRM-6 (PRN 07)",
        "group": "gps-ops",
        "lat": -32.47332588266734,
        "lon": 130.2398367366926,
        "alt_km": 20025.301831872348,
        "timestamp": "2025-12-14T14:39:29.629378+00:00",
        "meta_object_name": "GPS BIIRM-6 (PRN 07)",
        "meta_object_id": "2008-012A",
        "meta_epoch": "2025-12-13T16:06:10.352160",
        "meta_mean_motion": 2.00565694,
        "meta_eccentricity": 0.02024855,
        "meta_inclination": 54.4771,
        "meta_ra_of_asc_node": 157.3357,
        "meta_arg_of_pericenter": 244.9586,
        "meta_mean_anomaly": 112.9395,
        "meta_ephemeris_type": 0,
        "meta_classification_type": "U",
        "meta_norad_cat_id": 32711,
        "meta_element_set_no": 999,
        "meta_rev_at_epoch": 13003,
        "meta_bstar": 0,
        "meta_mean_motion_dot": 1e-06,
        "meta_mean_motion_ddot": 0,
        "tle_line1": "1 32711U 08012A   25347.67095315  .00000100  00000+0  00000+0 0  9991",
        "tle_line2": "2 32711  54.4771 157.3357 0202485 244.9586 112.9395  2.00565694130038"
      },
      "geometry": {
        "type": "Point",
        "coordinates": [
          130.2398367366926,
          -32.47332588266734
        ]
      }
    },
    {
      "type": "Feature",
      "properties": {
        "norad_id": 35752,
        "name": "GPS BIIRM-8 (PRN 05)",
        "group": "gps-ops",
        "lat": -19.851226024010234,
        "lon": 20.683376665445405,
        "alt_km": 20221.93313432965,
        "timestamp": "2025-12-14T14:39:29.629389+00:00",
        "meta_object_name": "GPS BIIRM-8 (PRN 05)",
        "meta_object_id": "2009-043A",
        "meta_epoch": "2025-12-13T15:33:53.607168",
        "meta_mean_motion": 2.00565679,
        "meta_eccentricity": 0.00517811,
        "meta_inclination": 56.0916,
        "meta_ra_of_asc_node": 34.7471,
        "meta_arg_of_pericenter": 81.8933,
        "meta_mean_anomaly": 279.8016,
        "meta_ephemeris_type": 0,
        "meta_classification_type": "U",
        "meta_norad_cat_id": 35752,
        "meta_element_set_no": 999,
        "meta_rev_at_epoch": 11964,
        "meta_bstar": 0,
        "meta_mean_motion_dot": -9.6e-07,
        "meta_mean_motion_ddot": 0,
        "tle_line1": "1 35752U 09043A   25347.64853712 -.00000096  00000+0  00000+0 0  9999",
        "tle_line2": "2 35752  56.0916  34.7471 0051781  81.8933 279.8016  2.00565679119645"
      },
      "geometry": {
        "type": "Point",
        "coordinates": [
          20.683376665445405,
          -19.851226024010234
        ]
      }
    },
    {
      "type": "Feature",
      "properties": {
        "norad_id": 36585,
        "name": "GPS BIIF-1  (PRN 25)",
        "group": "gps-ops",
        "lat": 53.93809137769376,
        "lon": -44.68259202490289,
        "alt_km": 19886.605078123084,
        "timestamp": "2025-12-14T14:39:29.629400+00:00",
        "meta_object_name": "GPS BIIF-1  (PRN 25)",
        "meta_object_id": "2010-022A",
        "meta_epoch": "2025-12-13T05:27:57.415104",
        "meta_mean_motion": 2.00553278,
        "meta_eccentricity": 0.01261295,
        "meta_inclination": 54.3,
        "meta_ra_of_asc_node": 216.0542,
        "meta_arg_of_pericenter": 65.0762,
        "meta_mean_anomaly": 111.1577,
        "meta_ephemeris_type": 0,
        "meta_classification_type": "U",
        "meta_norad_cat_id": 36585,
        "meta_element_set_no": 999,
        "meta_rev_at_epoch": 11386,
        "meta_bstar": 0,
        "meta_mean_motion_dot": 3.5e-07,
        "meta_mean_motion_ddot": 0,
        "tle_line1": "1 36585U 10022A   25347.22774786  .00000035  00000+0  00000+0 0  9992",
        "tle_line2": "2 36585  54.3000 216.0542 0126129  65.0762 111.1577  2.00553278113862"
      },
      "geometry": {
        "type": "Point",
        "coordinates": [
          -44.68259202490289,
          53.93809137769376
        ]
      }
    }
  ]
}